{
  "type": "FeatureCollection",
  "features": [
    {
      "type": "Feature",
      "properties": {
        "norad_id": 38474,
        "name": "IRIDIUM 33 DEB",
        "group": "iridium-33-debris",
        "lat": 28.101486853306472,
        "lon": -168.00692848638684,
        "alt_km": 706.7934333943113,
        "timestamp": "2025-12-03T19:33:07.363233+00:00",
        "meta_object_name": "IRIDIUM 33 DEB",
        "meta_object_id": "1997-051AAB",
        "meta_epoch": "2025-11-29T08:54:08.657856",
        "meta_mean_motion": 14.50603208,
        "meta_eccentricity": 0.002717,
        "meta_inclination": 86.3442,
        "meta_ra_of_asc_node": 15.8845,
        "meta_arg_of_pericenter": 130.9322,
        "meta_mean_anomaly": 229.4241,
        "meta_ephemeris_type": 0,
        "meta_classification_type": "U",
        "meta_norad_cat_id": 38474,
        "meta_element_set_no": 999,
        "meta_rev_at_epoch": 65124,
        "meta_bstar": 0.00047302373,
        "meta_mean_motion_dot": 1.884e-05,
        "meta_mean_motion_ddot": 0,
        "tle_line1": "1 38474U 97051AAB 25333.37093354  .00001884  00000+0  47302-3 0  9997",
        "tle_line2": "2 38474  86.3442  15.8845 0027170 130.9322 229.4241 14.50603208651244"
      },
      "geometry": {
        "type": "Point",
        "coordinates": [
          -168.00692848638684,
          28.101486853306472
        ]
      }
    },
    {
      "type": "Feature",
      "properties": {
        "norad_id": 39777,
        "name": "IRIDIUM 33 DEB",
        "group": "iridium-33-debris",
        "lat": 18.17715208581902,
        "lon": -179.29969977047696,
        "alt_km": 746.1790850949865,
        "timestamp": "2025-12-03T19:33:07.363244+00:00",
        "meta_object_name": "IRIDIUM 33 DEB",
        "meta_object_id": "1997-051AAJ",
        "meta_epoch": "2025-12-01T13:02:19.201056",
        "meta_mean_motion": 14.56024465,
        "meta_eccentricity": 0.00595889,
        "meta_inclination": 85.9622,
        "meta_ra_of_asc_node": 180.4732,
        "meta_arg_of_pericenter": 225.0821,
        "meta_mean_anomaly": 134.5543,
        "meta_ephemeris_type": 0,
        "meta_classification_type": "U",
        "meta_norad_cat_id": 39777,
        "meta_element_set_no": 999,
        "meta_rev_at_epoch": 60022,
        "meta_bstar": 0.0022774227,
        "meta_mean_motion_dot": 0.00010294,
        "meta_mean_motion_ddot": 0,
        "tle_line1": "1 39777U 97051AAJ 25335.54327779  .00010294  00000+0  22774-2 0  9996",
        "tle_line2": "2 39777  85.9622 180.4732 0059588 225.0821 134.5543 14.56024465600229"
      },
      "geometry": {
        "type": "Point",
        "coordinates": [
          -179.29969977047696,
          18.17715208581902
        ]
      }
    },
    {
      "type": "Feature",
      "properties": {
        "norad_id": 39778,
        "name": "IRIDIUM 33 DEB",
        "group": "iridium-33-debris",
        "lat": -80.19049761456431,
        "lon": 25.614025007415407,
        "alt_km": 724.8817678115902,
        "timestamp": "2025-12-03T19:33:07.363254+00:00",
        "meta_object_name": "IRIDIUM 33 DEB",
        "meta_object_id": "1997-051AAK",
        "meta_epoch": "2025-12-03T11:39:58.195008",
        "meta_mean_motion": 14.54148527,
        "meta_eccentricity": 0.0008813,
        "meta_inclination": 86.3788,
        "meta_ra_of_asc_node": 47.2421,
        "meta_arg_of_pericenter": 68.6106,
        "meta_mean_anomaly": 291.604,
        "meta_ephemeris_type": 0,
        "meta_classification_type": "U",
        "meta_norad_cat_id": 39778,
        "meta_element_set_no": 999,
        "meta_rev_at_epoch": 60558,
        "meta_bstar": 0.0013693,
        "meta_mean_motion_dot": 5.812e-05,
        "meta_mean_motion_ddot": 0,
        "tle_line1": "1 39778U 97051AAK 25337.48609022  .00005812  00000+0  13693-2 0  9996",
        "tle_line2": "2 39778  86.3788  47.2421 0008813  68.6106 291.6040 14.54148527605580"
      },
      "geometry": {
        "type": "Point",
        "coordinates": [
          25.614025007415407,
          -80.19049761456431
        ]
      }
    },
    {
      "type": "Feature",
      "properties": {
        "norad_id": 39781,
        "name": "IRIDIUM 33 DEB",
        "group": "iridium-33-debris",
        "lat": 40.59775652416292,
        "lon": -95.22531699422117,
        "alt_km": 841.0047149393795,
        "timestamp": "2025-12-03T19:33:07.363264+00:00",
        "meta_object_name": "IRIDIUM 33 DEB",
        "meta_object_id": "1997-051AAN",
        "meta_epoch": "2025-12-01T14:05:13.737984",
        "meta_mean_motion": 14.20093316,
        "meta_eccentricity": 0.01818611,
        "meta_inclination": 86.3695,
        "meta_ra_of_asc_node": 262.5729,
        "meta_arg_of_pericenter": 308.3699,
        "meta_mean_anomaly": 228.4219,
        "meta_ephemeris_type": 0,
        "meta_classification_type": "U",
        "meta_norad_cat_id": 39781,
        "meta_element_set_no": 999,
        "meta_rev_at_epoch": 7948,
        "meta_bstar": 0.0058998753,
        "meta_mean_motion_dot": 0.00014872,
        "meta_mean_motion_ddot": 0,
        "tle_line1": "1 39781U 97051AAN 25335.58696456  .00014872  00000+0  58999-2 0  9990",
        "tle_line2": "2 39781  86.3695 262.5729 0181861 308.3699 228.4219 14.20093316 79488"
      },
      "geometry": {
        "type": "Point",
        "coordinates": [
          -95.22531699422117,
          40.59775652416292
        ]
      }
    },
    {
      "type": "Feature",
      "properties": {
        "norad_id": 39783,
        "name": "IRIDIUM 33 DEB",
        "group": "iridium-33-debris",
        "lat": 48.804375694469684,
        "lon": -95.63794967421958,
        "alt_km": 477.06508753930393,
        "timestamp": "2025-12-03T19:33:07.363275+00:00",
        "meta_object_name": "IRIDIUM 33 DEB",
        "meta_object_id": "1997-051AAQ",
        "meta_epoch": "2025-11-16T15:05:40.850592",
        "meta_mean_motion": 15.19327111,
        "meta_eccentricity": 0.00057535,
        "meta_inclination": 86.1306,
        "meta_ra_of_asc_node": 268.8004,
        "meta_arg_of_pericenter": 179.9151,
        "meta_mean_anomaly": 1.8316,
        "meta_ephemeris_type": 0,
        "meta_classification_type": "U",
        "meta_norad_cat_id": 39783,
        "meta_element_set_no": 999,
        "meta_rev_at_epoch": 60401,
        "meta_bstar": 0.010398125,
        "meta_mean_motion_dot": 0.00226179,
        "meta_mean_motion_ddot": 0,
        "tle_line1": "1 39783U 97051AAQ 25320.62894503  .00226179  00000+0  10398-1 0  9999",
        "tle_line2": "2 39783  86.1306 268.8004 0005753 179.9151   1.8316 15.19327111604018"
      },
      "geometry": {
        "type": "Point",
        "coordinates": [
          -95.63794967421958,
          48.804375694469684
        ]
      }
    },
    {
      "type": "Feature",
      "properties": {
        "norad_id": 40996,
        "name": "IRIDIUM 33 DEB",
        "group": "iridium-33-debris",
        "lat": -51.23524623103247,
        "lon": 1.021283814918907,
        "alt_km": 594.6161196617786,
        "timestamp": "2025-12-03T19:33:07.363288+00:00",
        "meta_object_name": "IRIDIUM 33 DEB",
        "meta_object_id": "1997-051ABJ",
        "meta_epoch": "2025-12-02T08:31:11.979264",
        "meta_mean_motion": 14.95250831,
        "meta_eccentricity": 0.00120962,
        "meta_inclination": 86.3524,
        "meta_ra_of_asc_node": 6.2584,
        "meta_arg_of_pericenter": 92.2467,
        "meta_mean_anomaly": 284.2756,
        "meta_ephemeris_type": 0,
        "meta_classification_type": "U",
        "meta_norad_cat_id": 40996,
        "meta_element_set_no": 999,
        "meta_rev_at_epoch": 62333,
        "meta_bstar": 0.0031243939,
        "meta_mean_motion_dot": 0.0003457,
        "meta_mean_motion_ddot": 0,
        "tle_line1": "1 40996U 97051ABJ 25336.35499976  .00034570  00000+0  31244-2 0  9995",
        "tle_line2": "2 40996  86.3524   6.2584 0012096  92.2467 284.2756 14.95250831623330"
      },
      "geometry": {
        "type": "Point",
        "coordinates": [
          1.021283814918907,
          -51.23524623103247
        ]
      }
    },
    {
      "type": "Feature",
      "properties": {
        "norad_id": 40998,
        "name": "IRIDIUM 33 DEB",
        "group": "iridium-33-debris",
        "lat": -52.07559071511168,
        "lon": -117.87637892594499,
        "alt_km": 752.7889267393557,
        "timestamp": "2025-12-03T19:33:07.363299+00:00",
        "meta_object_name": "IRIDIUM 33 DEB",
        "meta_object_id": "1997-051ABL",
        "meta_epoch": "2025-12-03T12:06:12.154176",
        "meta_mean_motion": 14.45043538,
        "meta_eccentricity": 0.0009571,
        "meta_inclination": 86.3836,
        "meta_ra_of_asc_node": 57.6004,
        "meta_arg_of_pericenter": 108.6038,
        "meta_mean_anomaly": 309.9308,
        "meta_ephemeris_type": 0,
        "meta_classification_type": "U",
        "meta_norad_cat_id": 40998,
        "meta_element_set_no": 999,
        "meta_rev_at_epoch": 6548,
        "meta_bstar": 0.00081639,
        "meta_mean_motion_dot": 2.87e-05,
        "meta_mean_motion_ddot": 0,
        "tle_line1": "1 40998U 97051ABL 25337.50430734  .00002870  00000+0  81639-3 0  9994",
        "tle_line2": "2 40998  86.3836  57.6004 0009571 108.6038 309.9308 14.45043538 65488"
      },
      "geometry": {
        "type": "Point",
        "coordinates": [
          -117.87637892594499,
          -52.07559071511168
        ]
      }
    }
  ]
}